NORAD_CAT_ID,OBJECT_NAME,OBJECT_TYPE,EPOCH,MEAN_MOTION,ECCENTRICITY,INCLINATION,RA_OF_ASC_NODE,ARG_OF_PERICENTER,MEAN_ANOMALY,BSTAR,MEAN_MOTION_DOT,MEAN_MOTION_DDOT,TLE_LINE0,TLE_LINE1,TLE_LINE2,SEMIMAJOR_AXIS,PERIOD,APOGEE,PERIGEE,DECAYED
53400.0,STARLINK-4520,PAYLOAD,2023-04-29 06:25:04,15.08856919,0.0001031,53.2147,137.2017,100.798,259.3128,0.00017114,2.438e-05,0.0,0 STARLINK-4520,1 53400U 22097N   23119.26741586  .00002438  00000-0  17114-3 0  9991,2 53400  53.2147 137.2017 0001031 100.7980 259.3128 15.08856919 40698,6917.829,95.436,540.407,538.98,0.0
53400.0,STARLINK-4520,PAYLOAD,2023-04-30 01:29:42,15.0884719,0.0001042,53.2144,133.6337,99.0415,261.0695,8.2429e-06,-1.57e-06,0.0,0 STARLINK-4520,1 53400U 22097N   23120.06229476 -.00000157  00000-0  82429-5 0  9990,2 53400  53.2144 133.6337 0001042  99.0415 261.0695 15.08847190 40325,6917.858,95.437,540.444,539.003,0.0
53400.0,STARLINK-4520,PAYLOAD,2023-05-01 06:06:39,15.08837692,0.0001146,53.2147,128.281,103.3696,256.7424,1.2541e-05,-8.8e-07,0.0,0 STARLINK-4520,1 53400U 22097N   23121.25461918 -.00000088  00000-0  12541-4 0  9991,2 53400  53.2147 128.2810 0001146 103.3696 256.7424 15.08837692 40506,6917.887,95.438,540.545,538.96,0.0
53400.0,STARLINK-4520,PAYLOAD,2023-05-01 09:17:25,15.08837472,9.92e-05,53.2141,127.6865,90.5238,269.5868,6.7295e-06,-1.81e-06,0.0,0 STARLINK-4520,1 53400U 22097N   23121.38709960 -.00000181  00000-0  67295-5 0  9998,2 53400  53.2141 127.6865 0000992  90.5238 269.5868 15.08837472 41017,6917.888,95.438,540.439,539.067,0.0
53400.0,STARLINK-4520,PAYLOAD,2023-05-02 09:08:12,15.08845169,9.66e-05,53.2152,123.2252,91.9362,268.1741,0.00013926,1.93e-05,0.0,0 STARLINK-4520,1 53400U 22097N   23122.38069679  .00001930  00000-0  13926-3 0  9997,2 53400  53.2152 123.2252 0000966  91.9362 268.1741 15.08845169 40673,6917.865,95.437,540.398,539.061,0.0
53400.0,STARLINK-4520,PAYLOAD,2023-05-03 05:48:13,15.08842112,0.0001089,53.2145,119.3587,87.9545,272.1572,0.00012835,1.756e-05,0.0,0 STARLINK-4520,1 53400U 22097N   23123.24181884  .00001756  00000-0  12835-3 0  9990,2 53400  53.2145 119.3587 0001089  87.9545 272.1572 15.08842112 40804,6917.874,95.437,540.492,538.986,0.0
53400.0,STARLINK-4520,PAYLOAD,2023-05-03 08:58:59,15.08843913,0.0001042,53.2143,118.764,92.3681,267.743,0.00014612,2.039e-05,0.0,0 STARLINK-4520,1 53400U 22097N   23123.37429763  .00002039  00000-0  14612-3 0  9995,2 53400  53.2143 118.7640 0001042  92.3681 267.7430 15.08843913 41315,6917.868,95.437,540.454,539.013,0.0
53400.0,STARLINK-4520,PAYLOAD,2023-05-04 05:39:00,15.08835572,0.00011,53.2145,114.8977,93.042,267.0698,-3.0551e-05,-7.74e-06,0.0,0 STARLINK-4520,1 53400U 22097N   23124.23542337 -.00000774  00000-0 -30551-4 0  9991,2 53400  53.2145 114.8977 0001100  93.0420 267.0698 15.08835572 40951,6917.894,95.438,540.52,538.998,0.0
53400.0,STARLINK-4520,PAYLOAD,2023-05-04 08:49:46,15.08839302,0.0001095,53.2155,114.303,94.4077,265.704,1.7668e-05,-7e-08,0.0,0 STARLINK-4520,1 53400U 22097N   23124.36790416 -.00000007  00000-0  17668-4 0  9990,2 53400  53.2155 114.3030 0001095  94.4077 265.7040 15.08839302 41461,6917.883,95.438,540.505,538.99,0.0
53400.0,STARLINK-4520,PAYLOAD,2023-05-05 08:40:33,15.08846839,0.0001089,53.2158,109.8422,94.3032,265.8084,8.0591e-05,9.95e-06,0.0,0 STARLINK-4520,1 53400U 22097N   23125.36149661  .00000995  00000-0  80591-4 0  9991,2 53400  53.2158 109.8422 0001089  94.3032 265.8084 15.08846839 41126,6917.859,95.437,540.478,538.971,0.0
53400.0,STARLINK-4520,PAYLOAD,2023-05-06 05:20:34,15.08841841,0.0001093,53.2159,105.9771,88.7282,271.3835,0.00010435,1.373e-05,0.0,0 STARLINK-4520,1 53400U 22097N   23126.22262101  .00001373  00000-0  10435-3 0  9992,2 53400  53.2159 105.9771 0001093  88.7282 271.3835 15.08841841 41258,6917.875,95.437,540.496,538.984,0.0
53400.0,STARLINK-4520,PAYLOAD,2023-05-06 08:31:20,15.08843157,0.0001114,53.2156,105.3813,93.7915,266.3205,0.00011534,1.548e-05,0.0,0 STARLINK-4520,1 53400U 22097N   23126.35509969  .00001548  00000-0  11534-3 0  9997,2 53400  53.2156 105.3813 0001114  93.7915 266.3205 15.08843157 41762,6917.871,95.437,540.506,538.965,0.0
53400.0,STARLINK-4520,PAYLOAD,2023-05-07 05:11:21,15.08846054,0.0001003,53.2156,101.516,77.2008,282.9096,5.3171e-05,5.59e-06,0.0,0 STARLINK-4520,1 53400U 22097N   23127.21621897  .00000559  00000-0  53171-4 0  9993,2 53400  53.2156 101.5160 0001003  77.2008 282.9096 15.08846054 41897,6917.862,95.437,540.421,539.033,0.0
53400.0,STARLINK-4520,PAYLOAD,2023-05-08 05:02:08,15.0884091,9.66e-05,53.2157,97.058,81.0835,279.0267,-9.9141e-07,-3.04e-06,0.0,0 STARLINK-4520,1 53400U 22097N   23128.20982495 -.00000304  00000-0 -99141-6 0  9996,2 53400  53.2157  97.0580 0000966  81.0835 279.0267 15.08840910 41556,6917.878,95.437,540.411,539.074,0.0
53400.0,STARLINK-4520,PAYLOAD,2023-05-08 14:34:27,15.08842172,0.0001012,53.2156,95.2711,80.5699,279.5407,7.5212e-05,9.09e-06,0.0,0 STARLINK-4520,1 53400U 22097N   23128.60726230  .00000909  00000-0  75212-4 0  9993,2 53400  53.2156  95.2711 0001012  80.5699 279.5407 15.08842172 42101,6917.874,95.437,540.439,539.039,0.0
53400.0,STARLINK-4520,PAYLOAD,2023-05-09 04:52:55,15.0884456,0.0001134,53.2176,92.5993,92.2868,267.8254,1.4588e-05,-5.6e-07,0.0,0 STARLINK-4520,1 53400U 22097N   23129.20342490 -.00000056  00000-0  14588-4 0  9995,2 53400  53.2176  92.5993 0001134  92.2868 267.8254 15.08844560 42190,6917.866,95.437,540.516,538.947,0.0
53400.0,STARLINK-4520,PAYLOAD,2023-05-10 04:43:43,15.08844174,0.0001244,53.2175,88.1385,105.2449,254.868,7.6041e-05,9.23e-06,0.0,0 STARLINK-4520,1 53400U 22097N   23130.19702607  .00000923  00000-0  76041-4 0  9999,2 53400  53.2175  88.1385 0001244 105.2449 254.8680 15.08844174 42344,6917.868,95.437,540.593,538.872,0.0
53400.0,STARLINK-4520,PAYLOAD,2023-05-11 04:34:30,15.08846558,0.0001052,53.2176,83.6767,88.2043,271.907,8.5492e-05,1.073e-05,0.0,0 STARLINK-4520,1 53400U 22097N   23131.19062580  .00001073  00000-0  85492-4 0  9996,2 53400  53.2176  83.6767 0001052  88.2043 271.9070 15.08846558 42493,6917.86,95.437,540.453,538.998,0.0
53400.0,STARLINK-4520,PAYLOAD,2023-05-12 02:49:54,15.08838408,0.0001176,53.2164,79.5099,107.2912,252.8209,-5.4944e-06,-3.75e-06,0.0,0 STARLINK-4520,1 53400U 22097N   23132.11799504 -.00000375  00000-0 -54944-5 0  9997,2 53400  53.2164  79.5099 0001176 107.2912 252.8209 15.08838408 42145,6917.885,95.438,540.564,538.937,0.0
53400.0,STARLINK-4520,PAYLOAD,2023-05-12 23:29:54,15.08853579,0.0001183,53.2169,75.6479,81.7705,278.3421,0.0001279,1.749e-05,0.0,0 STARLINK-4520,1 53400U 22097N   23132.97910461  .00001749  00000-0  12790-3 0  9993,2 53400  53.2169  75.6479 0001183  81.7705 278.3421 15.08853579 42272,6917.839,95.437,540.522,538.886,0.0
53400.0,STARLINK-4520,PAYLOAD,2023-05-13 05:51:26,15.08863158,0.0001218,53.2165,74.4546,93.4513,266.6619,0.00033695,5.082e-05,0.0,0 STARLINK-4520,1 53400U 22097N   23133.24406186  .00005082  00000-0  33695-3 0  9999,2 53400  53.2165  74.4546 0001218  93.4513 266.6619 15.08863158 42808,6917.81,95.436,540.517,538.832,0.0
53400.0,STARLINK-4520,PAYLOAD,2023-05-14 05:42:14,15.08849252,9.78e-05,53.2163,69.9942,94.8103,265.3001,0.00033259,5.011e-05,0.0,0 STARLINK-4520,1 53400U 22097N   23134.23767094  .00005011  00000-0  33259-3 0  9995,2 53400  53.2163  69.9942 0000978  94.8103 265.3001 15.08849252 42469,6917.852,95.437,540.394,539.041,0.0
53400.0,STARLINK-4520,PAYLOAD,2023-05-14 20:00:43,15.08842271,0.0001024,53.217,67.3203,98.7016,261.4092,0.00043963,6.716e-05,0.0,0 STARLINK-4520,1 53400U 22097N   23134.83383405  .00006716  00000-0  43963-3 0  9997,2 53400  53.2170  67.3203 0001024  98.7016 261.4092 15.08842271 43044,6917.873,95.437,540.447,539.03,0.0
53400.0,STARLINK-4520,PAYLOAD,2023-05-15 00:46:52,15.08849127,0.0001062,53.2171,66.4292,100.248,259.8632,0.00050501,7.76e-05,0.0,0 STARLINK-4520,1 53400U 22097N   23135.03255191  .00007760  00000-0  50501-3 0  9996,2 53400  53.2171  66.4292 0001062 100.2480 259.8632 15.08849127 42585,6917.852,95.437,540.452,538.983,0.0
53400.0,STARLINK-4520,PAYLOAD,2023-05-15 11:54:34,15.08847593,9.36e-05,53.2168,64.3481,110.2282,249.881,0.00022706,3.328e-05,0.0,0 STARLINK-4520,1 53400U 22097N   23135.49622971  .00003328  00000-0  22706-3 0  9992,2 53400  53.2168  64.3481 0000936 110.2282 249.8810 15.08847593 43143,6917.857,95.437,540.37,539.075,0.0
53400.0,STARLINK-4520,PAYLOAD,2023-05-16 05:23:49,15.08839767,0.0001055,53.2176,61.0768,106.0003,254.1106,7.7215e-05,9.41e-06,0.0,0 STARLINK-4520,1 53400U 22097N   23136.22487418  .00000941  00000-0  77215-4 0  9993,2 53400  53.2176  61.0768 0001055 106.0003 254.1106 15.08839767 42769,6917.881,95.438,540.476,539.016,0.0
53400.0,STARLINK-4520,PAYLOAD,2023-05-17 03:39:12,15.08848126,9.09e-05,53.2169,56.911,88.4969,271.6128,0.00037653,5.711e-05,0.0,0 STARLINK-4520,1 53400U 22097N   23137.15223378  .00005711  00000-0  37653-3 0  9990,2 53400  53.2169  56.9110 0000909  88.4969 271.6128 15.08848126 43393,6917.856,95.437,540.349,539.092,0.0
53400.0,STARLINK-4520,PAYLOAD,2023-05-18 01:54:37,15.08839176,0.0001043,53.2177,52.7477,72.9287,287.1819,0.00012848,1.758e-05,0.0,0 STARLINK-4520,1 53400U 22097N   23138.07959898  .00001758  00000-0  12848-3 0  9991,2 53400  53.2177  52.7477 0001043  72.9287 287.1819 15.08839176 43049,6917.883,95.438,540.469,539.026,0.0
53400.0,STARLINK-4520,PAYLOAD,2023-05-19 00:10:01,15.08843117,9.34e-05,53.2175,48.5875,94.7493,265.3605,0.00013927,1.93e-05,0.0,0 STARLINK-4520,1 53400U 22097N   23139.00695759  .00001930  00000-0  13927-3 0  9999,2 53400  53.2175  48.5875 0000934  94.7493 265.3605 15.08843117 43671,6917.871,95.437,540.382,539.09,0.0
53400.0,STARLINK-4520,PAYLOAD,2023-05-20 03:11:34,15.08853496,9.06e-05,53.2176,43.5301,99.5205,260.5889,0.00029038,4.338e-05,0.0,0 STARLINK-4520,1 53400U 22097N   23140.13303268  .00004338  00000-0  29038-3 0  9991,2 53400  53.2176  43.5301 0000906  99.5205 260.5889 15.08853496 43351,6917.839,95.437,540.331,539.077,0.0
